     3.04           N: GNSS NAV DATA    G: GPS              RINEX VERSION / TYPE
cnvtToRINEX 3.15.0  REGINA              20241101 000644 UTC PGM / RUN BY / DATE 
----------------------------------------------------------- COMMENT             
GPSA   0.4005D-07  0.1490D-07 -0.1192D-06  0.5960D-07       IONOSPHERIC CORR    
GPSB   0.1516D+06 -0.4915D+05 -0.1311D+06 -0.1966D+06       IONOSPHERIC CORR    
GPUT  0.9313225746D-09 0.000000000D+00  61440 2338          TIME SYSTEM CORR    
    18    18   137     7                                    LEAP SECONDS        
                                                            END OF HEADER       
G 7 2024 10 31 04 00 00-0.233533792198D-04 0.272848410532D-11 0.000000000000D+00
     0.140000000000D+02-0.322187500000D+02 0.472091093060D-08 0.173484148825D-01
    -0.157393515110D-05 0.188130791066D-01 0.978820025921D-05 0.515359732628D+04
     0.360000000000D+06-0.180676579475D-06 0.240622801182D+01 0.346451997757D-06
     0.950412360330D+00 0.190468750000D+03-0.209572822258D+01-0.835749098019D-08
    -0.402873924173D-09 0.100000000000D+01 0.233800000000D+04 0.000000000000D+00
     0.200000000000D+01 0.000000000000D+00-0.107102096081D-07 0.140000000000D+02
     0.352818000000D+06 0.400000000000D+01 0.000000000000D+00 0.000000000000D+00
G27 2024 10 31 03 59 44-0.347336754203D-04 0.000000000000D+00 0.000000000000D+00
     0.150000000000D+02 0.197187500000D+02 0.493663420206D-08 0.287322993893D+01
     0.840052962303D-06 0.127625301247D-01 0.153109431267D-05 0.515368189430D+04
     0.359984000000D+06-0.800937414169D-07-0.179222106765D+01-0.163912773132D-06
     0.959545264272D+00 0.350875000000D+03 0.798957496107D+00-0.833820446254D-08
     0.878608026122D-10 0.100000000000D+01 0.233800000000D+04 0.000000000000D+00
     0.200000000000D+01 0.000000000000D+00 0.186264514923D-08 0.150000000000D+02
     0.352818000000D+06 0.400000000000D+01 0.000000000000D+00 0.000000000000D+00
G21 2024 10 31 03 59 28 0.985744409263D-04-0.909494701773D-12 0.000000000000D+00
     0.123000000000D+03-0.118750000000D+03 0.447340062081D-08 0.261530359554D+01
    -0.577606260777D-05 0.254879003624D-01 0.744499266148D-05 0.515364514351D+04
     0.359968000000D+06-0.540167093277D-07-0.828195499724D+00 0.527128577232D-06
     0.961028157035D+00 0.234625000000D+03-0.499147218548D+00-0.788139972050D-08
    -0.466448000860D-09 0.100000000000D+01 0.233800000000D+04 0.000000000000D+00
     0.200000000000D+01 0.000000000000D+00-0.102445483208D-07 0.123000000000D+03
     0.352818000000D+06 0.400000000000D+01 0.000000000000D+00 0.000000000000D+00
G16 2024 10 31 04 00 00-0.140856485814D-03 0.989075488178D-11 0.000000000000D+00
     0.910000000000D+02 0.109375000000D+03 0.437089635109D-08-0.248699467299D+01
     0.524334609509D-05 0.141448155046D-01 0.904127955437D-05 0.515364974976D+04
     0.360000000000D+06 0.188127160072D-06-0.274373613027D+01-0.186264514923D-06
     0.961253162613D+00 0.203218750000D+03 0.849979309599D+00-0.785997025645D-08
     0.506449667090D-09 0.100000000000D+01 0.233800000000D+04 0.000000000000D+00
     0.200000000000D+01 0.000000000000D+00-0.102445483208D-07 0.910000000000D+02
     0.352818000000D+06 0.400000000000D+01 0.000000000000D+00 0.000000000000D+00
G 3 2024 10 31 04 00 00 0.586314126849D-03 0.110276232590D-10 0.000000000000D+00
     0.590000000000D+02 0.135000000000D+02 0.385051753237D-08-0.563292672635D+00
     0.678002834320D-06 0.566433055792D-02 0.107102096081D-04 0.515363712311D+04
     0.360000000000D+06-0.167638063431D-07 0.316943172424D+00 0.614672899246D-07
     0.986974744191D+00 0.186156250000D+03 0.116225883816D+01-0.769246327912D-08
     0.345728686702D-09 0.100000000000D+01 0.233800000000D+04 0.000000000000D+00
     0.280000000000D+01 0.000000000000D+00 0.139698386192D-08 0.590000000000D+02
     0.352818000000D+06 0.400000000000D+01 0.000000000000D+00 0.000000000000D+00
G 8 2024 10 31 04 00 00 0.400157179683D-03 0.109139364213D-10 0.000000000000D+00
     0.370000000000D+02 0.258750000000D+02 0.518485882732D-08 0.281931447202D+01
     0.134296715260D-05 0.986573158298D-02 0.155530869961D-05 0.515370096207D+04
     0.360000000000D+06-0.147148966789D-06-0.182006366685D+01-0.633299350739D-07
     0.950517312999D+00 0.346406250000D+03 0.374212964203D+00-0.848392481809D-08
     0.141077305007D-09 0.100000000000D+01 0.233800000000D+04 0.000000000000D+00
     0.200000000000D+01 0.000000000000D+00 0.465661287308D-08 0.370000000000D+02
     0.352818000000D+06 0.400000000000D+01 0.000000000000D+00 0.000000000000D+00
G 2 2024 10 31 04 00 00-0.325306318700D-03 0.841282599140D-11 0.000000000000D+00
     0.200000000000D+02-0.115687500000D+03 0.441661254107D-08 0.295666161552D+01
    -0.575184822083D-05 0.163037274033D-01 0.709854066372D-05 0.515368808556D+04
     0.360000000000D+06 0.255182385445D-06-0.820072453984D+00 0.234693288803D-06
     0.966790826879D+00 0.241281250000D+03-0.110975774970D+01-0.786032741419D-08
    -0.393230665350D-09 0.100000000000D+01 0.233800000000D+04 0.000000000000D+00
     0.200000000000D+01 0.000000000000D+00-0.176951289177D-07 0.200000000000D+02
     0.352818000000D+06 0.400000000000D+01 0.000000000000D+00 0.000000000000D+00
G32 2024 10 31 03 59 44-0.580138992518D-03 0.488853402203D-11 0.000000000000D+00
     0.150000000000D+02 0.281250000000D+01 0.472626829662D-08-0.277722617844D+01
     0.251457095146D-06 0.796133989934D-02 0.436231493950D-05 0.515373461533D+04
     0.359984000000D+06 0.931322574615D-08 0.134842842510D+01-0.465661287308D-07
     0.962663045523D+00 0.295687500000D+03-0.213408988157D+01-0.805354974839D-08
     0.102861427448D-09 0.100000000000D+01 0.233800000000D+04 0.000000000000D+00
     0.200000000000D+01 0.000000000000D+00 0.931322574615D-09 0.150000000000D+02
     0.352842000000D+06 0.400000000000D+01 0.000000000000D+00 0.000000000000D+00
G10 2024 10 31 04 00 00-0.177877955139D-03-0.139834810398D-10 0.000000000000D+00
     0.960000000000D+02 0.165937500000D+02 0.373837000383D-08-0.150427035243D+01
     0.763684511185D-06 0.988410681020D-02 0.108685344458D-04 0.515368335915D+04
     0.360000000000D+06 0.262632966042D-06 0.314408030482D+00-0.912696123123D-07
     0.986613397574D+00 0.184187500000D+03-0.236794110794D+01-0.745531054361D-08
     0.396445084958D-09 0.100000000000D+01 0.233800000000D+04 0.000000000000D+00
     0.200000000000D+01 0.000000000000D+00 0.232830643654D-08 0.960000000000D+02
     0.352848000000D+06 0.400000000000D+01 0.000000000000D+00 0.000000000000D+00
G 4 2024 10 31 04 00 00 0.471174716949D-03 0.659383658785D-11 0.000000000000D+00
     0.170000000000D+03 0.450000000000D+01 0.477555606394D-08 0.250525087243D+01
     0.195577740669D-06 0.311464688275D-02 0.425241887569D-05 0.515368597221D+04
     0.360000000000D+06-0.484287738800D-07 0.139393900048D+01 0.931322574615D-08
     0.965590976580D+00 0.301593750000D+03-0.300908351184D+01-0.822498546080D-08
    -0.285726187357D-11 0.100000000000D+01 0.233800000000D+04 0.000000000000D+00
     0.200000000000D+01 0.000000000000D+00-0.465661287308D-08 0.938000000000D+03
     0.352848000000D+06 0.400000000000D+01 0.000000000000D+00 0.000000000000D+00
G14 2024 10 31 04 00 00 0.529375858605D-03 0.829913915368D-11 0.000000000000D+00
     0.233000000000D+03 0.959375000000D+02 0.470233872843D-08-0.846793979568D+00
     0.504963099957D-05 0.496243208181D-02 0.871717929840D-05 0.515370547295D+04
     0.360000000000D+06 0.726431608200D-07-0.280829810932D+01-0.186264514923D-07
     0.945214490972D+00 0.201656250000D+03-0.285744317154D+01-0.818676958324D-08
     0.346443002170D-09 0.100000000000D+01 0.233800000000D+04 0.000000000000D+00
     0.200000000000D+01 0.000000000000D+00-0.791624188423D-08 0.489000000000D+03
     0.353592000000D+06 0.400000000000D+01 0.000000000000D+00 0.000000000000D+00
G30 2024 10 31 04 00 00-0.291698146611D-03 0.761701812735D-11 0.000000000000D+00
     0.600000000000D+01-0.303750000000D+02 0.495627787744D-08-0.114338085612D+00
    -0.150874257088D-05 0.713914097287D-02 0.956282019615D-05 0.515378893471D+04
     0.360000000000D+06 0.409781932831D-07 0.240450384437D+01 0.134110450745D-06
     0.935571847854D+00 0.182906250000D+03-0.246057492839D+01-0.833963309348D-08
    -0.386087510666D-09 0.100000000000D+01 0.233800000000D+04 0.000000000000D+00
     0.200000000000D+01 0.000000000000D+00 0.372529029846D-08 0.600000000000D+01
     0.353682000000D+06 0.400000000000D+01 0.000000000000D+00 0.000000000000D+00
G21 2024 10 31 03 59 44 0.985744409263D-04-0.909494701773D-12 0.000000000000D+00
     0.100000000000D+02-0.118750000000D+03 0.447340062081D-08 0.261763735657D+01
    -0.577606260777D-05 0.254878996639D-01 0.744499266148D-05 0.515364513969D+04
     0.359984000000D+06-0.540167093277D-07-0.828195629924D+00 0.527128577232D-06
     0.961028155572D+00 0.234625000000D+03-0.499147190753D+00-0.788139972050D-08
    -0.466448000860D-09 0.100000000000D+01 0.233800000000D+04 0.000000000000D+00
     0.200000000000D+01 0.000000000000D+00-0.102445483208D-07 0.100000000000D+02
     0.353736000000D+06 0.400000000000D+01 0.000000000000D+00 0.000000000000D+00
G17 2024 10 31 04 00 00 0.576564576477D-03-0.137561073643D-10 0.000000000000D+00
     0.610000000000D+02 0.593750000000D+00 0.481984362298D-08 0.274412652313D+01
     0.139698386192D-06 0.135414774995D-01 0.125356018543D-05 0.515356670570D+04
     0.360000000000D+06 0.322237610817D-06-0.172282390443D+01-0.130385160446D-07
     0.966262290669D+00 0.355562500000D+03-0.127985601121D+01-0.830820321287D-08
    -0.671456540289D-10 0.100000000000D+01 0.233800000000D+04 0.000000000000D+00
     0.200000000000D+01 0.000000000000D+00-0.111758708954D-07 0.610000000000D+02
     0.356706000000D+06 0.400000000000D+01 0.000000000000D+00 0.000000000000D+00
